{
    "links": {
        "self": "http://www.neowsapp.com/rest/v1/neo/54051080?api_key=iIulBulltgU6a56xZRHN4H3l9WmuAYTsLGpBGhQ2"
    },
    "id": "54051080",
    "neo_reference_id": "54051080",
    "name": "(2020 PU3)",
    "designation": "2020 PU3",
    "nasa_jpl_url": "http://ssd.jpl.nasa.gov/sbdb.cgi?sstr=54051080",
    "absolute_magnitude_h": 26.836,
    "estimated_diameter": {
        "kilometers": {
            "estimated_diameter_min": 0.0114118217,
            "estimated_diameter_max": 0.025517609
        },
        "meters": {
            "estimated_diameter_min": 11.411821675,
            "estimated_diameter_max": 25.5176090125
        },
        "miles": {
            "estimated_diameter_min": 0.007090975,
            "estimated_diameter_max": 0.0158559022
        },
        "feet": {
            "estimated_diameter_min": 37.4403610244,
            "estimated_diameter_max": 83.7191923526
        }
    },
    "is_potentially_hazardous_asteroid": false,
    "close_approach_data": [
        {
            "close_approach_date": "2020-08-04",
            "close_approach_date_full": "2020-Aug-04 13:32",
            "epoch_date_close_approach": 1596547920000,
            "relative_velocity": {
                "kilometers_per_second": "9.7098258476",
                "kilometers_per_hour": "34955.3730514475",
                "miles_per_hour": "21719.9094385508"
            },
            "miss_distance": {
                "astronomical": "0.0052659354",
                "lunar": "2.0484488706",
                "kilometers": "787772.719397598",
                "miles": "489499.2694509324"
            },
            "orbiting_body": "Earth"
        },
        {
            "close_approach_date": "2020-08-04",
            "close_approach_date_full": "2020-Aug-04 22:18",
            "epoch_date_close_approach": 1596579480000,
            "relative_velocity": {
                "kilometers_per_second": "9.7966572422",
                "kilometers_per_hour": "35267.9660718771",
                "miles_per_hour": "21914.1425850505"
            },
            "miss_distance": {
                "astronomical": "0.0053806261",
                "lunar": "2.0930635529",
                "kilometers": "804930.203826407",
                "miles": "500160.4359101366"
            },
            "orbiting_body": "Moon"
        },
        {
            "close_approach_date": "2023-02-24",
            "close_approach_date_full": "2023-Feb-24 17:44",
            "epoch_date_close_approach": 1677260640000,
            "relative_velocity": {
                "kilometers_per_second": "19.0017512353",
                "kilometers_per_hour": "68406.3044470631",
                "miles_per_hour": "42505.0173382321"
            },
            "miss_distance": {
                "astronomical": "0.327158487",
                "lunar": "127.264651443",
                "kilometers": "48942212.80762269",
                "miles": "30411280.848825522"
            },
            "orbiting_body": "Earth"
        },
        {
            "close_approach_date": "2024-09-12",
            "close_approach_date_full": "2024-Sep-12 03:09",
            "epoch_date_close_approach": 1726110540000,
            "relative_velocity": {
                "kilometers_per_second": "2.7102414261",
                "kilometers_per_hour": "9756.8691338964",
                "miles_per_hour": "6062.5390460036"
            },
            "miss_distance": {
                "astronomical": "0.1411501607",
                "lunar": "54.9074125123",
                "kilometers": "21115763.390877709",
                "miles": "13120726.9548980242"
            },
            "orbiting_body": "Venus"
        },
        {
            "close_approach_date": "2141-08-29",
            "close_approach_date_full": "2141-Aug-29 15:17",
            "epoch_date_close_approach": 5417075820000,
            "relative_velocity": {
                "kilometers_per_second": "21.3449774219",
                "kilometers_per_hour": "76841.9187187738",
                "miles_per_hour": "47746.579995007"
            },
            "miss_distance": {
                "astronomical": "0.4088663988",
                "lunar": "159.0490291332",
                "kilometers": "61165542.375050556",
                "miles": "38006505.6467714328"
            },
            "orbiting_body": "Earth"
        }
    ],
    "orbital_data": {
        "orbit_id": "1",
        "orbit_determination_date": "2020-08-16 08:42:10",
        "first_observation_date": "2020-08-13",
        "last_observation_date": "2020-08-16",
        "data_arc_in_days": 3,
        "observations_used": 15,
        "orbit_uncertainty": "8",
        "minimum_orbit_intersection": ".00202569",
        "jupiter_tisserand_invariant": "5.036",
        "epoch_osculation": "2459075.5",
        "eccentricity": ".3314980260012122",
        "semi_major_axis": "1.266387715257344",
        "inclination": "4.759528607698856",
        "ascending_node_longitude": "133.2673984188752",
        "orbital_period": "520.5332310857308",
        "perihelion_distance": ".8465826874973492",
        "perihelion_argument": "108.1128520345236",
        "aphelion_distance": "1.686192743017338",
        "perihelion_time": "2459010.944464213849",
        "mean_anomaly": "44.6465114908039",
        "mean_motion": ".6915984965054205",
        "equinox": "J2000",
        "orbit_class": {
            "orbit_class_type": "APO",
            "orbit_class_description": "Near-Earth asteroid orbits which cross the Earth’s orbit similar to that of 1862 Apollo",
            "orbit_class_range": "a (semi-major axis) > 1.0 AU; q (perihelion) < 1.017 AU"
        }
    },
    "is_sentry_object": false
}